[
    {
        "Altitude(m)": 607895.8086146163,
        "Argument of Periapsis(deg)": 0.0,
        "Eccentricity": 0.0,
        "Inclination(deg)": 60.0,
        "Latitude(deg)": 40.99831583679792,
        "Longitude(deg)": -9.911438110548215,
        "Mean Anomaly(deg)": -229.09089999999998,
        "RAAN(deg)": 300.0,
        "Satellite Name": "Test1 1328",
        "Satellite Number": 1328,
        "Semi-Major Axis(m)": 6980739.136638005,
        "Time(s)": 0
    },
    {
        "Altitude(m)": 607795.1217894035,
        "Argument of Periapsis(deg)": 0.00010418945913296404,
        "Eccentricity": 0.0,
        "Inclination(deg)": 60.0,
        "Latitude(deg)": 40.53064093465032,
        "Longitude(deg)": -9.414843077185907,
        "Mean Anomaly(deg)": -228.47079385453813,
        "RAAN(deg)": 299.99957995086027,
        "Satellite Name": "Test1 1328",
        "Satellite Number": 1328,
        "Semi-Major Axis(m)": 6980739.136638005,
        "Time(s)": 10
    }
]